CTC1_L_00350016-03
1 56357U 24888AX  26037.47805556  .00000000  00000+0  00000-0 0  9993
2 56357  50.0000 180.0000 0000000   0.0000   0.0000 13.72670174    11
CTC1_L_00350016-04
1 56358U 26466MC  26037.47805556  .00000000  00000+0  00000-0 0  9998
2 56358  50.0000 180.0000 0000000   0.0000  90.0000 13.72670174    11
CTC1_L_00350017-01
1 56359U 26161PM  26037.47805556  .00000000  00000+0  00000-0 0  9991
2 56359  50.0000 192.0000 0000000   0.0000 192.0000 13.72670174    18
CTC1_L_00350017-02
1 56360U 26947OP  26037.47805556  .00000000  00000+0  00000-0 0  9995
2 56360  50.0000 192.0000 0000000   0.0000 282.0000 13.72670174    10
CTC1_L_00350017-03
1 56361U 24322AT  26037.47805556  .00000000  00000+0  00000-0 0  9991
2 56361  50.0000 192.0000 0000000   0.0000  12.0000 13.72670174    12
CTC1_L_00350017-04
1 56362U 25113DL  26037.47805556  .00000000  00000+0  00000-0 0  9991
2 56362  50.0000 192.0000 0000000   0.0000 102.0000 13.72670174    13
CTC1_L_00350018-01
1 56363U 25894TX  26037.47805556  .00000000  00000+0  00000-0 0  9998
2 56363  50.0000 204.0000 0000000   0.0000 204.0000 13.72670174    11
CTC1_L_00350018-02
1 56364U 24974QL  26037.47805556  .00000000  00000+0  00000-0 0  9997
2 56364  50.0000 204.0000 0000000   0.0000 294.0000 13.72670174    11
CTC1_L_00350018-03
1 56365U 26062SN  26037.47805556  .00000000  00000+0  00000-0 0  9998
2 56365  50.0000 204.0000 0000000   0.0000  24.0000 13.72670174    13
CTC1_L_00350018-04
1 56366U 24425BZ  26037.47805556  .00000000  00000+0  00000-0 0  9990
2 56366  50.0000 204.0000 0000000   0.0000 114.0000 13.72670174    14
CTC1_L_00350019-01
1 56367U 25793KE  26037.47805556  .00000000  00000+0  00000-0 0  9990
2 56367  50.0000 216.0000 0000000   0.0000 216.0000 13.72670174    11
CTC1_L_00350019-02
1 56368U 23393NX  26037.47805556  .00000000  00000+0  00000-0 0  9995
2 56368  50.0000 216.0000 0000000   0.0000 306.0000 13.72670174    12
CTC1_L_00350019-03
1 56369U 26646DN  26037.47805556  .00000000  00000+0  00000-0 0  9990
2 56369  50.0000 216.0000 0000000   0.0000  36.0000 13.72670174    13
CTC1_L_00350019-04
1 56370U 24391TG  26037.47805556  .00000000  00000+0  00000-0 0  9997
2 56370  50.0000 216.0000 0000000   0.0000 126.0000 13.72670174    15
CTC1_L_00350020-01
1 56371U 22049BX  26037.47805556  .00000000  00000+0  00000-0 0  9996
2 56371  50.0000 228.0000 0000000   0.0000 228.0000 13.72670174    12
CTC1_L_00350020-02
1 56372U 26553GY  26037.47805556  .00000000  00000+0  00000-0 0  9991
2 56372  50.0000 228.0000 0000000   0.0000 318.0000 13.72670174    13
CTC1_L_00350020-03
1 56373U 23962JK  26037.47805556  .00000000  00000+0  00000-0 0  9993
2 56373  50.0000 228.0000 0000000   0.0000  48.0000 13.72670174    14
CTC1_L_00350020-04
1 56374U 24040WZ  26037.47805556  .00000000  00000+0  00000-0 0  9992
2 56374  50.0000 228.0000 0000000   0.0000 138.0000 13.72670174    15
CTC1_L_00350021-01
1 56375U 23657WE  26037.47805556  .00000000  00000+0  00000-0 0  9996
2 56375  50.0000 240.0000 0000000   0.0000 240.0000 13.72670174    14
CTC1_L_00350021-02
1 56376U 23316NO  26037.47805556  .00000000  00000+0  00000-0 0  9999
2 56376  50.0000 240.0000 0000000   0.0000 330.0000 13.72670174    15
CTC1_L_00350021-03
1 56377U 25755SK  26037.47805556  .00000000  00000+0  00000-0 0  9999
2 56377  50.0000 240.0000 0000000   0.0000  60.0000 13.72670174    16
CTC1_L_00350021-04
1 56378U 26948ED  26037.47805556  .00000000  00000+0  00000-0 0  9995
2 56378  50.0000 240.0000 0000000   0.0000 150.0000 13.72670174    17
CTC1_L_00350022-01
1 56379U 24235WO  26037.47805556  .00000000  00000+0  00000-0 0  9993
2 56379  50.0000 252.0000 0000000   0.0000 252.0000 13.72670174    14
CTC1_L_00350022-02
1 56380U 23743SC  26037.47805556  .00000000  00000+0  00000-0 0  9998
2 56380  50.0000 252.0000 0000000   0.0000 342.0000 13.72670174    16
CTC1_L_00350022-03
1 56381U 24540SJ  26037.47805556  .00000000  00000+0  00000-0 0  9995
2 56381  50.0000 252.0000 0000000   0.0000  72.0000 13.72670174    17
CTC1_L_00350022-04
1 56382U 24375FD  26037.47805556  .00000000  00000+0  00000-0 0  9992
2 56382  50.0000 252.0000 0000000   0.0000 162.0000 13.72670174    18
CTC1_L_00350023-01
1 56383U 23230MD  26037.47805556  .00000000  00000+0  00000-0 0  9992
2 56383  50.0000 264.0000 0000000   0.0000 264.0000 13.72670174    15
CTC1_L_00350023-02
1 56384U 22340ZU  26037.47805556  .00000000  00000+0  00000-0 0  9994
2 56384  50.0000 264.0000 0000000   0.0000 354.0000 13.72670174    16
CTC1_L_00350023-03
1 56385U 25343MW  26037.47805556  .00000000  00000+0  00000-0 0  9991
2 56385  50.0000 264.0000 0000000   0.0000  84.0000 13.72670174    17
CTC1_L_00350023-04
1 56386U 25897TQ  26037.47805556  .00000000  00000+0  00000-0 0  9996
2 56386  50.0000 264.0000 0000000   0.0000 174.0000 13.72670174    18
CTC1_L_00350024-01
1 56387U 24815YQ  26037.47805556  .00000000  00000+0  00000-0 0  9996
2 56387  50.0000 276.0000 0000000   0.0000 276.0000 13.72670174    15
CTC1_L_00350024-02
1 56388U 22442QN  26037.47805556  .00000000  00000+0  00000-0 0  9991
2 56388  50.0000 276.0000 0000000   0.0000   6.0000 13.72670174    17
CTC1_L_00350024-03
1 56389U 25705XP  26037.47805556  .00000000  00000+0  00000-0 0  9997
2 56389  50.0000 276.0000 0000000   0.0000  96.0000 13.72670174    17
CTC1_L_00350024-04
1 56390U 25251YG  26037.47805556  .00000000  00000+0  00000-0 0  9995
2 56390  50.0000 276.0000 0000000   0.0000 186.0000 13.72670174    19
CTC1_L_00350025-01
1 56391U 22980DT  26037.47805556  .00000000  00000+0  00000-0 0  9992
2 56391  50.0000 288.0000 0000000   0.0000 288.0000 13.72670174    16
CTC1_L_00350025-02
1 56392U 24646CW  26037.47805556  .00000000  00000+0  00000-0 0  9994
2 56392  50.0000 288.0000 0000000   0.0000  18.0000 13.72670174    18
CTC1_L_00350025-03
1 56393U 26752TG  26037.47805556  .00000000  00000+0  00000-0 0  9995
2 56393  50.0000 288.0000 0000000   0.0000 108.0000 13.72670174    19
CTC1_L_00350025-04
1 56394U 26054WC  26037.47805556  .00000000  00000+0  00000-0 0  9991
2 56394  50.0000 288.0000 0000000   0.0000 198.0000 13.72670174    19
CTC1_L_00350026-01
1 56395U 24597ST  26037.47805556  .00000000  00000+0  00000-0 0  9992
2 56395  50.0000 300.0000 0000000   0.0000 300.0000 13.72670174    10
CTC1_L_00350026-02
1 56396U 24916XM  26037.47805556  .00000000  00000+0  00000-0 0  9998
2 56396  50.0000 300.0000 0000000   0.0000  30.0000 13.72670174    11
CTC1_L_00350026-03
1 56397U 22682GF  26037.47805556  .00000000  00000+0  00000-0 0  9997
2 56397  50.0000 300.0000 0000000   0.0000 120.0000 13.72670174    12
CTC1_L_00350026-04
1 56398U 24097LY  26037.47805556  .00000000  00000+0  00000-0 0  9990
2 56398  50.0000 300.0000 0000000   0.0000 210.0000 13.72670174    13
CTC1_L_00350027-01
1 56399U 26510PB  26037.47805556  .00000000  00000+0  00000-0 0  9993
2 56399  50.0000 312.0000 0000000   0.0000 312.0000 13.72670174    10
CTC1_L_00350027-02
1 56400U 22747DM  26037.47805556  .00000000  00000+0  00000-0 0  9994
2 56400  50.0000 312.0000 0000000   0.0000  42.0000 13.72670174    13
CTC1_L_00350027-03
1 56401U 24484YO  26037.47805556  .00000000  00000+0  00000-0 0  9995
2 56401  50.0000 312.0000 0000000   0.0000 132.0000 13.72670174    14
CTC1_L_00350027-04
1 56402U 22190CV  26037.47805556  .00000000  00000+0  00000-0 0  9998
2 56402  50.0000 312.0000 0000000   0.0000 222.0000 13.72670174    15
CTC1_L_00350028-01
1 56403U 25074FX  26037.47805556  .00000000  00000+0  00000-0 0  9993
2 56403  50.0000 324.0000 0000000   0.0000 324.0000 13.72670174    12
CTC1_L_00350028-02
1 56404U 22484FD  26037.47805556  .00000000  00000+0  00000-0 0  9996
2 56404  50.0000 324.0000 0000000   0.0000  54.0000 13.72670174    13
CTC1_L_00350028-03
1 56405U 23797TJ  26037.47805556  .00000000  00000+0  00000-0 0  9995
2 56405  50.0000 324.0000 0000000   0.0000 144.0000 13.72670174    14
CTC1_L_00350028-04
1 56406U 22513CT  26037.47805556  .00000000  00000+0  00000-0 0  9991
2 56406  50.0000 324.0000 0000000   0.0000 234.0000 13.72670174    15
CTC1_L_00350029-01
1 56407U 25330ZV  26037.47805556  .00000000  00000+0  00000-0 0  9992
2 56407  50.0000 336.0000 0000000   0.0000 336.0000 13.72670174    12
CTC1_L_00350029-02
1 56408U 26423CE  26037.47805556  .00000000  00000+0  00000-0 0  9997
2 56408  50.0000 336.0000 0000000   0.0000  66.0000 13.72670174    13
CTC1_L_00350029-03
1 56409U 23439XQ  26037.47805556  .00000000  00000+0  00000-0 0  9992
2 56409  50.0000 336.0000 0000000   0.0000 156.0000 13.72670174    14
CTC1_L_00350029-04
1 56410U 23164GH  26037.47805556  .00000000  00000+0  00000-0 0  9999
2 56410  50.0000 336.0000 0000000   0.0000 246.0000 13.72670174    16
CTC1_L_00350030-01
1 56411U 23306WA  26037.47805556  .00000000  00000+0  00000-0 0  9998
2 56411  50.0000 348.0000 0000000   0.0000 348.0000 13.72670174    13
CTC1_L_00350030-02
1 56412U 25523PU  26037.47805556  .00000000  00000+0  00000-0 0  9992
2 56412  50.0000 348.0000 0000000   0.0000  78.0000 13.72670174    14
CTC1_L_00350030-03
1 56413U 23580NL  26037.47805556  .00000000  00000+0  00000-0 0  9994
2 56413  50.0000 348.0000 0000000   0.0000 168.0000 13.72670174    15
CTC1_L_00350030-04
1 56414U 22887UD  26037.47805556  .00000000  00000+0  00000-0 0  9994
2 56414  50.0000 348.0000 0000000   0.0000 258.0000 13.72670174    16
